{
    "links": {
        "self": "http://www.neowsapp.com/rest/v1/neo/3795059?api_key=iIulBulltgU6a56xZRHN4H3l9WmuAYTsLGpBGhQ2"
    },
    "id": "3795059",
    "neo_reference_id": "3795059",
    "name": "(2017 YV4)",
    "designation": "2017 YV4",
    "nasa_jpl_url": "http://ssd.jpl.nasa.gov/sbdb.cgi?sstr=3795059",
    "absolute_magnitude_h": 24.8,
    "estimated_diameter": {
        "kilometers": {
            "estimated_diameter_min": 0.0291443905,
            "estimated_diameter_max": 0.0651688382
        },
        "meters": {
            "estimated_diameter_min": 29.1443904535,
            "estimated_diameter_max": 65.1688382168
        },
        "miles": {
            "estimated_diameter_min": 0.018109479,
            "estimated_diameter_max": 0.0404940262
        },
        "feet": {
            "estimated_diameter_min": 95.6180819754,
            "estimated_diameter_max": 213.8085311752
        }
    },
    "is_potentially_hazardous_asteroid": false,
    "close_approach_data": [
        {
            "close_approach_date": "2016-04-05",
            "close_approach_date_full": "2016-Apr-05 03:54",
            "epoch_date_close_approach": 1459828440000,
            "relative_velocity": {
                "kilometers_per_second": "13.8274595582",
                "kilometers_per_hour": "49778.854409416",
                "miles_per_hour": "30930.6442856729"
            },
            "miss_distance": {
                "astronomical": "0.245841038",
                "lunar": "95.632163782",
                "kilometers": "36777295.64338906",
                "miles": "22852351.835166628"
            },
            "orbiting_body": "Earth"
        },
        {
            "close_approach_date": "2017-12-26",
            "close_approach_date_full": "2017-Dec-26 13:58",
            "epoch_date_close_approach": 1514296680000,
            "relative_velocity": {
                "kilometers_per_second": "9.0180906811",
                "kilometers_per_hour": "32465.126452015",
                "miles_per_hour": "20172.5670445868"
            },
            "miss_distance": {
                "astronomical": "0.0443557741",
                "lunar": "17.2543961249",
                "kilometers": "6635529.327561167",
                "miles": "4123126.7322194246"
            },
            "orbiting_body": "Earth"
        }
    ],
    "orbital_data": {
        "orbit_id": "1",
        "orbit_determination_date": "2017-12-26 12:12:06",
        "first_observation_date": "2017-12-24",
        "last_observation_date": "2017-12-26",
        "data_arc_in_days": 2,
        "observations_used": 36,
        "orbit_uncertainty": "8",
        "minimum_orbit_intersection": ".0170675",
        "jupiter_tisserand_invariant": "4.364",
        "epoch_osculation": "2458112.5",
        "eccentricity": ".3907361489514294",
        "semi_major_axis": "1.545697525185732",
        "inclination": "6.175365492533285",
        "ascending_node_longitude": "272.9289638301343",
        "orbital_period": "701.9160841682852",
        "perihelion_distance": ".941737626750904",
        "perihelion_argument": "222.9096946156254",
        "aphelion_distance": "2.14965742362056",
        "perihelion_time": "2458145.990135036889",
        "mean_anomaly": "342.8235185299023",
        "mean_motion": ".5128818218014927",
        "equinox": "J2000",
        "orbit_class": {
            "orbit_class_type": "APO",
            "orbit_class_description": "Near-Earth asteroid orbits which cross the Earth’s orbit similar to that of 1862 Apollo",
            "orbit_class_range": "a (semi-major axis) > 1.0 AU; q (perihelion) < 1.017 AU"
        }
    },
    "is_sentry_object": false
}